{
  "type": "FeatureCollection",
  "features": [
    {
      "type": "Feature",
      "properties": {
        "norad_id": 31563,
        "name": "FENGYUN 1C DEB",
        "group": "fengyun-1c-debris",
        "lat": -51.70009033735472,
        "lon": 161.0774977402818,
        "alt_km": 703.0426365095245,
        "timestamp": "2025-12-21T07:34:34.799284+00:00",
        "meta_object_name": "FENGYUN 1C DEB",
        "meta_object_id": "1999-025BZE",
        "meta_epoch": "2025-12-20T08:52:19.079328",
        "meta_mean_motion": 14.6534273,
        "meta_eccentricity": 0.01137792,
        "meta_inclination": 98.9513,
        "meta_ra_of_asc_node": 148.5356,
        "meta_arg_of_pericenter": 55.5567,
        "meta_mean_anomaly": 305.6324,
        "meta_ephemeris_type": 0,
        "meta_classification_type": "U",
        "meta_norad_cat_id": 31563,
        "meta_element_set_no": 999,
        "meta_rev_at_epoch": 98656,
        "meta_bstar": 0.00032615222,
        "meta_mean_motion_dot": 1.874e-05,
        "meta_mean_motion_ddot": 0,
        "tle_line1": "1 31563U 99025BZE 25354.36966527  .00001874  00000+0  32615-3 0  9995",
        "tle_line2": "2 31563  98.9513 148.5356 0113779  55.5567 305.6324 14.65342730986560"
      },
      "geometry": {
        "type": "Point",
        "coordinates": [
          161.0774977402818,
          -51.70009033735472
        ]
      }
    },
    {
      "type": "Feature",
      "properties": {
        "norad_id": 31565,
        "name": "FENGYUN 1C DEB",
        "group": "fengyun-1c-debris",
        "lat": 17.589050941219643,
        "lon": 52.99944549929622,
        "alt_km": 800.8136807674555,
        "timestamp": "2025-12-21T07:34:34.799293+00:00",
        "meta_object_name": "FENGYUN 1C DEB",
        "meta_object_id": "1999-025BZG",
        "meta_epoch": "2025-12-20T09:08:05.244864",
        "meta_mean_motion": 14.39062149,
        "meta_eccentricity": 0.00571969,
        "meta_inclination": 100.717,
        "meta_ra_of_asc_node": 228.3918,
        "meta_arg_of_pericenter": 2.0704,
        "meta_mean_anomaly": 358.0702,
        "meta_ephemeris_type": 0,
        "meta_classification_type": "U",
        "meta_norad_cat_id": 31565,
        "meta_element_set_no": 999,
        "meta_rev_at_epoch": 64463,
        "meta_bstar": 0.0021418623,
        "meta_mean_motion_dot": 6.69e-05,
        "meta_mean_motion_ddot": 0,
        "tle_line1": "1 31565U 99025BZG 25354.38061626  .00006690  00000+0  21419-2 0  9995",
        "tle_line2": "2 31565 100.7170 228.3918 0057196   2.0704 358.0702 14.39062149644639"
      },
      "geometry": {
        "type": "Point",
        "coordinates": [
          52.99944549929622,
          17.589050941219643
        ]
      }
    },
    {
      "type": "Feature",
      "properties": {
        "norad_id": 31566,
        "name": "FENGYUN 1C DEB",
        "group": "fengyun-1c-debris",
        "lat": 16.720153718786154,
        "lon": -122.7101071806731,
        "alt_km": 783.3393389636458,
        "timestamp": "2025-12-21T07:34:34.799302+00:00",
        "meta_object_name": "FENGYUN 1C DEB",
        "meta_object_id": "1999-025BZH",
        "meta_epoch": "2025-12-20T16:23:32.164224",
        "meta_mean_motion": 14.37477886,
        "meta_eccentricity": 0.00231232,
        "meta_inclination": 98.9491,
        "meta_ra_of_asc_node": 53.9187,
        "meta_arg_of_pericenter": 330.2209,
        "meta_mean_anomaly": 160.6459,
        "meta_ephemeris_type": 0,
        "meta_classification_type": "U",
        "meta_norad_cat_id": 31566,
        "meta_element_set_no": 999,
        "meta_rev_at_epoch": 96505,
        "meta_bstar": 0.0013064089,
        "meta_mean_motion_dot": 3.876e-05,
        "meta_mean_motion_ddot": 0,
        "tle_line1": "1 31566U 99025BZH 25354.68301116  .00003876  00000+0  13064-2 0  9990",
        "tle_line2": "2 31566  98.9491  53.9187 0023123 330.2209 160.6459 14.37477886965057"
      },
      "geometry": {
        "type": "Point",
        "coordinates": [
          -122.7101071806731,
          16.720153718786154
        ]
      }
    },
    {
      "type": "Feature",
      "properties": {
        "norad_id": 31567,
        "name": "FENGYUN 1C DEB",
        "group": "fengyun-1c-debris",
        "lat": 20.616269815783394,
        "lon": 49.53540166837632,
        "alt_km": 1002.9906745391436,
        "timestamp": "2025-12-21T07:34:34.799311+00:00",
        "meta_object_name": "FENGYUN 1C DEB",
        "meta_object_id": "1999-025BZJ",
        "meta_epoch": "2025-12-19T11:42:14.577408",
        "meta_mean_motion": 13.92929453,
        "meta_eccentricity": 0.0186711,
        "meta_inclination": 102.3178,
        "meta_ra_of_asc_node": 222.3955,
        "meta_arg_of_pericenter": 292.5533,
        "meta_mean_anomaly": 65.5952,
        "meta_ephemeris_type": 0,
        "meta_classification_type": "U",
        "meta_norad_cat_id": 31567,
        "meta_element_set_no": 999,
        "meta_rev_at_epoch": 67503,
        "meta_bstar": 0.0021757,
        "meta_mean_motion_dot": 3.189e-05,
        "meta_mean_motion_ddot": 0,
        "tle_line1": "1 31567U 99025BZJ 25353.48766872  .00003189  00000+0  21757-2 0  9997",
        "tle_line2": "2 31567 102.3178 222.3955 0186711 292.5533  65.5952 13.92929453675037"
      },
      "geometry": {
        "type": "Point",
        "coordinates": [
          49.53540166837632,
          20.616269815783394
        ]
      }
    },
    {
      "type": "Feature",
      "properties": {
        "norad_id": 31568,
        "name": "FENGYUN 1C DEB",
        "group": "fengyun-1c-debris",
        "lat": -59.609220523768364,
        "lon": -98.46201647767074,
        "alt_km": 973.1330944199071,
        "timestamp": "2025-12-21T07:34:34.799320+00:00",
        "meta_object_name": "FENGYUN 1C DEB",
        "meta_object_id": "1999-025BZK",
        "meta_epoch": "2025-12-20T21:36:33.612192",
        "meta_mean_motion": 14.03410651,
        "meta_eccentricity": 0.01235733,
        "meta_inclination": 102.0491,
        "meta_ra_of_asc_node": 239.6323,
        "meta_arg_of_pericenter": 99.1566,
        "meta_mean_anomaly": 262.3592,
        "meta_ephemeris_type": 0,
        "meta_classification_type": "U",
        "meta_norad_cat_id": 31568,
        "meta_element_set_no": 999,
        "meta_rev_at_epoch": 94694,
        "meta_bstar": 0.0022372465,
        "meta_mean_motion_dot": 3.678e-05,
        "meta_mean_motion_ddot": 0,
        "tle_line1": "1 31568U 99025BZK 25354.90038903  .00003678  00000+0  22372-2 0  9990",
        "tle_line2": "2 31568 102.0491 239.6323 0123573  99.1566 262.3592 14.03410651946943"
      },
      "geometry": {
        "type": "Point",
        "coordinates": [
          -98.46201647767074,
          -59.609220523768364
        ]
      }
    },
    {
      "type": "Feature",
      "properties": {
        "norad_id": 31569,
        "name": "FENGYUN 1C DEB",
        "group": "fengyun-1c-debris",
        "lat": -56.263010527623535,
        "lon": -43.92773821708202,
        "alt_km": 951.2302591500065,
        "timestamp": "2025-12-21T07:34:34.799329+00:00",
        "meta_object_name": "FENGYUN 1C DEB",
        "meta_object_id": "1999-025BZL",
        "meta_epoch": "2025-12-20T16:44:56.342112",
        "meta_mean_motion": 13.95577556,
        "meta_eccentricity": 0.01743322,
        "meta_inclination": 102.6151,
        "meta_ra_of_asc_node": 154.8215,
        "meta_arg_of_pericenter": 346.9079,
        "meta_mean_anomaly": 30.9563,
        "meta_ephemeris_type": 0,
        "meta_classification_type": "U",
        "meta_norad_cat_id": 31569,
        "meta_element_set_no": 999,
        "meta_rev_at_epoch": 93790,
        "meta_bstar": 0.0015384194,
        "meta_mean_motion_dot": 2.303e-05,
        "meta_mean_motion_ddot": 0,
        "tle_line1": "1 31569U 99025BZL 25354.69787433  .00002303  00000+0  15384-2 0  9995",
        "tle_line2": "2 31569 102.6151 154.8215 0174332 346.9079  30.9563 13.95577556937903"
      },
      "geometry": {
        "type": "Point",
        "coordinates": [
          -43.92773821708202,
          -56.263010527623535
        ]
      }
    },
    {
      "type": "Feature",
      "properties": {
        "norad_id": 31570,
        "name": "FENGYUN 1C DEB",
        "group": "fengyun-1c-debris",
        "lat": -38.999998939730204,
        "lon": 48.32268892998975,
        "alt_km": 862.8660192937614,
        "timestamp": "2025-12-21T07:34:34.799338+00:00",
        "meta_object_name": "FENGYUN 1C DEB",
        "meta_object_id": "1999-025BZM",
        "meta_epoch": "2025-12-19T23:45:35.930016",
        "meta_mean_motion": 14.25330142,
        "meta_eccentricity": 0.01547682,
        "meta_inclination": 102.5663,
        "meta_ra_of_asc_node": 36.0247,
        "meta_arg_of_pericenter": 206.1842,
        "meta_mean_anomaly": 153.1437,
        "meta_ephemeris_type": 0,
        "meta_classification_type": "U",
        "meta_norad_cat_id": 31570,
        "meta_element_set_no": 999,
        "meta_rev_at_epoch": 63470,
        "meta_bstar": 0.0019503601,
        "meta_mean_motion_dot": 5.132e-05,
        "meta_mean_motion_ddot": 0,
        "tle_line1": "1 31570U 99025BZM 25353.98999919  .00005132  00000+0  19504-2 0  9993",
        "tle_line2": "2 31570 102.5663  36.0247 0154768 206.1842 153.1437 14.25330142634706"
      },
      "geometry": {
        "type": "Point",
        "coordinates": [
          48.32268892998975,
          -38.999998939730204
        ]
      }
    }
  ]
}